[{"OBJECT_NAME":"STARLINK-5748","OBJECT_ID":"2023-020AM","EPOCH":"2026-03-09T22:00:01.999584","MEAN_MOTION":15.12157009,"ECCENTRICITY":9.806e-5,"INCLINATION":43.001,"RA_OF_ASC_NODE":337.0108,"ARG_OF_PERICENTER":295.4837,"MEAN_ANOMALY":231.5743,"EPHEMERIS_TYPE":0,"CLASSIFICATION_TYPE":"U","NORAD_CAT_ID":55604,"ELEMENT_SET_NO":999,"REV_AT_EPOCH":578,"BSTAR":0.001003115,"MEAN_MOTION_DOT":0.00017424,"MEAN_MOTION_DDOT":0},{"OBJECT_NAME":"3CAT-4","OBJECT_ID":"2024-128B","EPOCH":"2026-03-09T23:24:16.548192","MEAN_MOTION":15.017951,"ECCENTRICITY":0.00535476,"INCLINATION":61.9919,"RA_OF_ASC_NODE":211.2729,"ARG_OF_PERICENTER":115.9438,"MEAN_ANOMALY":244.7184,"EPHEMERIS_TYPE":0,"CLASSIFICATION_TYPE":"U","NORAD_CAT_ID":60236,"ELEMENT_SET_NO":999,"REV_AT_EPOCH":9120,"BSTAR":0.00028129934,"MEAN_MOTION_DOT":3.584e-5,"MEAN_MOTION_DDOT":0}]
